{"type": "FeatureCollection", "properties": {"source": "OpenStreetMap contributors", "licence": "ODbL 1.0"}, "features": [{"type": "Feature", "properties": {"electrified": "no", "gauge": "1435", "name": "Asciano-Monte Antico", "railway": "rail", "usage": "tourism"}, "geometry": {"type": "LineString", "coordinates": [[11.5505621, 43.0578133], [11.5507436, 43.056697], [11.5508756, 43.0559697], [11.5510838, 43.0547314], [11.5512384, 43.0538672], [11.5512605, 43.0537655], [11.5512861, 43.0536619], [11.5513119, 43.0535751], [11.5513569, 43.0534273], [11.5514009, 43.0532792], [11.5514285, 43.053201], [11.5514592, 43.0531217], [11.5514973, 43.0530214], [11.55154, 43.0529178], [11.5516001, 43.0527707], [11.5517539, 43.052486], [11.5520158, 43.0520963], [11.5521394, 43.0519385], [11.5522675, 43.0517805], [11.5523742, 43.0516604], [11.5524879, 43.0515411], [11.5526153, 43.0514114], [11.5527534, 43.0512817], [11.5532513, 43.0508416], [11.5552273, 43.0490908]]}}, {"type": "Feature", "properties": {"electrified": "no", "gauge": "1435", "name": "Asciano-Monte Antico", "railway": "rail", "usage": "tourism"}, "geometry": {"type": "LineString", "coordinates": [[11.547224, 42.9820466], [11.5471869, 42.9821561], [11.5471545, 42.9822655], [11.547125, 42.982377], [11.5471044, 42.9824762], [11.5470873, 42.9825753], [11.5470726, 42.9827003], [11.5470638, 42.9828194], [11.547059, 42.982955], [11.547067, 42.9832081], [11.5470757, 42.9833368], [11.5470879, 42.9834638], [11.5471001, 42.9835783], [11.5471163, 42.9836918], [11.5471569, 42.9839199], [11.5472568, 42.9844128], [11.547821, 42.987108]]}}, {"type": "Feature", "properties": {"electrified": "no", "gauge": "1435", "name": "Asciano-Monte Antico", "railway": "rail", "usage": "tourism"}, "geometry": {"type": "LineString", "coordinates": [[11.5754834, 43.1261257], [11.5756652, 43.1245003], [11.5756914, 43.1235957], [11.5756437, 43.1228578], [11.5754477, 43.1220321], [11.5752546, 43.1215227], [11.5751151, 43.1211546], [11.5739291, 43.1187281], [11.5735227, 43.1178406]]}}, {"type": "Feature", "properties": {"electrified": "no", "gauge": "1435", "name": "Asciano-Monte Antico", "railway": "rail", "usage": "tourism"}, "geometry": {"type": "LineString", "coordinates": [[11.558364, 43.0448566], [11.5585028, 43.0444913], [11.558528, 43.0444296], [11.5585603, 43.0443551], [11.5585897, 43.0442849], [11.5586061, 43.0442263], [11.5586163, 43.0441619], [11.5586369, 43.0440432], [11.5586539, 43.0439246], [11.5586637, 43.0438189], [11.5586735, 43.0437146], [11.5586815, 43.0436108], [11.558686, 43.0435052], [11.5586872, 43.0434357], [11.5586812, 43.0433662], [11.5586711, 43.0432777], [11.5586588, 43.0431707], [11.5586412, 43.0430637], [11.5585943, 43.0428221], [11.5585686, 43.0427401], [11.5585376, 43.0426608], [11.558511, 43.0426017], [11.5584663, 43.0425049], [11.558426, 43.0423976], [11.5583957, 43.0423298], [11.5583594, 43.0422605], [11.5582982, 43.0421506], [11.5582328, 43.042051], [11.5581902, 43.0419872], [11.5581477, 43.0419256], [11.5581035, 43.0418619], [11.5580578, 43.041803], [11.5580175, 43.0417447], [11.5579765, 43.0416916], [11.5579156, 43.0416181], [11.5578358, 43.0415237], [11.5577869, 43.0414709], [11.5577327, 43.0414162], [11.5576156, 43.0413016], [11.5574984, 43.0411854], [11.5573812, 43.0410698], [11.5569182, 43.0405824], [11.5568345, 43.0404962], [11.5567593, 43.0404201], [11.5566396, 43.0403068], [11.5564592, 43.0401323], [11.5560191, 43.0396882]]}}, {"type": "Feature", "properties": {"electrified": "no", "gauge": "1435", "name": "Asciano-Monte Antico", "railway": "rail", "usage": "tourism"}, "geometry": {"type": "LineString", "coordinates": [[11.5572982, 43.0468932], [11.5576194, 43.0462935], [11.5578848, 43.045786], [11.558364, 43.0448566]]}}, {"type": "Feature", "properties": {"electrified": "no", "gauge": "1435", "name": "Asciano-Monte Antico", "railway": "rail", "usage": "tourism"}, "geometry": {"type": "LineString", "coordinates": [[11.5524427, 43.0214179], [11.5531126, 43.0195599], [11.5534524, 43.0186173], [11.5537778, 43.0176853], [11.5546655, 43.0152942], [11.5552031, 43.0137064]]}}, {"type": "Feature", "properties": {"electrified": "no", "gauge": "1435", "name": "Asciano-Monte Antico", "railway": "rail", "usage": "tourism"}, "geometry": {"type": "LineString", "coordinates": [[11.5515798, 43.0252038], [11.5517228, 43.0241027]]}}, {"type": "Feature", "properties": {"electrified": "no", "gauge": "1435", "name": "Asciano-Monte Antico", "railway": "rail", "usage": "tourism"}, "geometry": {"type": "LineString", "coordinates": [[11.556514, 43.0098999], [11.5564783, 43.0100498], [11.5564426, 43.0102178], [11.5563874, 43.0104108], [11.5560083, 43.0116568], [11.5558003, 43.0121633]]}}, {"type": "Feature", "properties": {"electrified": "no", "gauge": "1435", "name": "Asciano-Monte Antico", "railway": "rail", "usage": "tourism"}, "geometry": {"type": "LineString", "coordinates": [[11.5565422, 43.0077292], [11.5565547, 43.0077913], [11.5565633, 43.0078522], [11.5565767, 43.007925], [11.5565877, 43.0079934], [11.5565985, 43.0080712], [11.5566065, 43.008149], [11.5566222, 43.0082979], [11.5566287, 43.0084514], [11.5566324, 43.008765], [11.556634, 43.0089633], [11.5566263, 43.0091706], [11.5566198, 43.0093269]]}}, {"type": "Feature", "properties": {"electrified": "no", "gauge": "1435", "name": "Asciano-Monte Antico", "railway": "rail", "usage": "tourism"}, "geometry": {"type": "LineString", "coordinates": [[11.5522089, 42.9993113], [11.5526406, 42.9998254], [11.5528094, 43.0000343], [11.5529833, 43.0002597], [11.5532024, 43.0005634], [11.553309, 43.0007201], [11.5534099, 43.0008773], [11.5534695, 43.0009723], [11.5535233, 43.0010673], [11.5536368, 43.0012687], [11.553746, 43.0014701], [11.5539665, 43.0019164], [11.5547369, 43.0035217], [11.5550444, 43.0041589], [11.5559576, 43.0060856], [11.5562448, 43.0067306], [11.5563101, 43.0069026], [11.5563939, 43.0071511], [11.5564694, 43.0074144], [11.5565422, 43.0077292]]}}, {"type": "Feature", "properties": {"electrified": "no", "gauge": "1435", "name": "Asciano-Monte Antico", "railway": "rail", "usage": "tourism"}, "geometry": {"type": "LineString", "coordinates": [[11.5514683, 42.9984419], [11.5522089, 42.9993113]]}}, {"type": "Feature", "properties": {"electrified": "no", "gauge": "1435", "name": "Asciano-Monte Antico - Variante Orcia", "railway": "abandoned"}, "geometry": {"type": "LineString", "coordinates": [[11.5560083, 43.0116568], [11.5560599, 43.0109991], [11.5561078, 43.0105956], [11.5561186, 43.0103989], [11.5561247, 43.0101918], [11.5561308, 43.0099224], [11.5561291, 43.0097894], [11.556118, 43.009653], [11.5561026, 43.0095302], [11.5560777, 43.0094075], [11.5560351, 43.0092415]]}}, {"type": "Feature", "properties": {"electrified": "no", "gauge": "1435", "railway": "abandoned"}, "geometry": {"type": "LineString", "coordinates": [[11.5556718, 43.0086573], [11.5555925, 43.0085623], [11.5554236, 43.0083752], [11.5553351, 43.0082816], [11.5552439, 43.008188], [11.5547828, 43.0077491], [11.5542513, 43.0072048], [11.5541764, 43.0071189], [11.5541033, 43.0070304], [11.5539626, 43.0068522], [11.553638, 43.0064367], [11.5535729, 43.006343], [11.5533995, 43.0061105], [11.5530009, 43.0055184], [11.552904, 43.0053824], [11.5525057, 43.0048003], [11.5522077, 43.0043704], [11.5521052, 43.0041983], [11.552012, 43.0040239], [11.5518756, 43.0037435], [11.5517776, 43.0035397], [11.5517362, 43.0034353], [11.5517111, 43.0033618], [11.5516982, 43.0033208], [11.5516889, 43.0032849], [11.5516796, 43.0032223], [11.5516711, 43.0031878], [11.5516602, 43.0031529], [11.5516142, 43.003023], [11.5515655, 43.002891], [11.5515427, 43.0028247], [11.5515179, 43.0027583], [11.5514843, 43.0026792], [11.5514468, 43.0025985], [11.5514027, 43.0025027], [11.5512474, 43.0021262], [11.5511774, 43.0019339], [11.5509499, 43.0013654], [11.5508324, 43.0009816], [11.5507945, 43.0008425]]}}, {"type": "Feature", "properties": {"electrified": "no", "gauge": "1435", "name": "Asciano-Monte Antico", "railway": "rail", "usage": "tourism"}, "geometry": {"type": "LineString", "coordinates": [[11.5560191, 43.0396882], [11.5558659, 43.0395314]]}}, {"type": "Feature", "properties": {"electrified": "no", "gauge": "1435", "name": "Asciano-Monte Antico", "railway": "rail", "usage": "tourism"}, "geometry": {"type": "LineString", "coordinates": [[11.5558659, 43.0395314], [11.554399, 43.0380201], [11.5542799, 43.0378909], [11.5541643, 43.0377617], [11.554074, 43.0376597], [11.5539388, 43.0374985], [11.5538444, 43.0373856], [11.5537625, 43.0372754], [11.553673, 43.0371532], [11.553575, 43.0370136], [11.5534837, 43.036874], [11.5534288, 43.0367805], [11.5533685, 43.0366792], [11.553286, 43.036533], [11.5532318, 43.036432], [11.5531792, 43.036331], [11.553122, 43.0362127], [11.5530749, 43.0361056], [11.5529649, 43.0358566], [11.552915, 43.0357243], [11.5528839, 43.0356412], [11.5528512, 43.0355514], [11.5528192, 43.0354511], [11.5527921, 43.0353586], [11.5527556, 43.0352198], [11.5527137, 43.0350529], [11.5526718, 43.0348713], [11.5525652, 43.0343646]]}}, {"type": "Feature", "properties": {"electrified": "no", "gauge": "1435", "name": "Asciano-Monte Antico", "railway": "rail", "usage": "tourism"}, "geometry": {"type": "LineString", "coordinates": [[11.5304115, 42.9745465], [11.5290643, 42.9752944], [11.5280439, 42.9758808], [11.526432, 42.9768051], [11.5259322, 42.977182], [11.5255309, 42.9775616], [11.5249187, 42.9784479], [11.5242222, 42.9794275], [11.5236744, 42.9799767], [11.523025, 42.9804351], [11.5219552, 42.9810099], [11.521042, 42.98155], [11.5200731, 42.9818458]]}}, {"type": "Feature", "properties": {"electrified": "no", "gauge": "1435", "name": "Asciano-Monte Antico", "railway": "rail", "usage": "tourism"}, "geometry": {"type": "LineString", "coordinates": [[11.5473171, 42.9818202], [11.5475218, 42.9813805], [11.5476261, 42.9811602], [11.5476743, 42.9810496], [11.5477211, 42.9809418], [11.5477745, 42.9808097], [11.5478191, 42.9806814], [11.5478735, 42.9805061], [11.5479019, 42.9804142], [11.5479236, 42.9803283], [11.5479442, 42.9802346], [11.5479729, 42.9800959], [11.5479866, 42.9800077], [11.5479976, 42.9799196], [11.5480061, 42.9798297], [11.5480131, 42.9797073], [11.5480161, 42.979585], [11.5480165, 42.9795231], [11.5480146, 42.9794597], [11.5480107, 42.979334], [11.5480017, 42.979263], [11.5479926, 42.9791921], [11.5479725, 42.9790516], [11.5479504, 42.9789364], [11.5479299, 42.9788455], [11.5479167, 42.9787953], [11.547901, 42.9787455], [11.5478826, 42.978689], [11.5478253, 42.978522], [11.5477998, 42.9784495], [11.5477774, 42.9783961], [11.5477549, 42.9783422], [11.5476972, 42.9782177], [11.5476384, 42.9780931], [11.5476069, 42.9780289], [11.5475708, 42.9779655], [11.5474979, 42.9778404], [11.5474476, 42.977762], [11.5473985, 42.9776853], [11.5472911, 42.9775287]]}}, {"type": "Feature", "properties": {"electrified": "no", "gauge": "1435", "name": "Asciano-Monte Antico", "railway": "rail", "usage": "tourism"}, "geometry": {"type": "LineString", "coordinates": [[11.547224, 42.9820466], [11.5473171, 42.9818202]]}}, {"type": "Feature", "properties": {"electrified": "no", "gauge": "1435", "name": "Asciano-Monte Antico", "railway": "rail", "usage": "tourism"}, "geometry": {"type": "LineString", "coordinates": [[11.5661365, 43.1024006], [11.56608, 43.1022831]]}}, {"type": "Feature", "properties": {"electrified": "no", "gauge": "1435", "name": "Asciano-Monte Antico", "railway": "rail", "usage": "tourism"}, "geometry": {"type": "LineString", "coordinates": [[11.5589601, 43.0932501], [11.5588108, 43.093112], [11.5555911, 43.0901994], [11.5554002, 43.0900185], [11.5552185, 43.0898329], [11.554341, 43.088819], [11.5540055, 43.0884416], [11.5529424, 43.0872241], [11.5526589, 43.086898], [11.5523753, 43.086572], [11.5520514, 43.086196], [11.5509971, 43.0849742], [11.550114, 43.0839582], [11.5499685, 43.0837917], [11.549907, 43.0837142], [11.5498549, 43.0836447], [11.5498067, 43.0835769], [11.5497064, 43.0834418], [11.5496019, 43.0832872], [11.5494528, 43.0830735], [11.5489499, 43.0822407], [11.5480647, 43.0808538], [11.5475647, 43.080039], [11.5474522, 43.0798547], [11.5474091, 43.079774], [11.5473672, 43.0796933], [11.5473229, 43.0796055], [11.5472906, 43.0795292], [11.5472538, 43.0794411], [11.5472225, 43.0793526], [11.5471884, 43.0792505], [11.5471633, 43.0791729], [11.5471275, 43.0790492], [11.5471031, 43.0789338], [11.5470808, 43.0788263], [11.547049, 43.0785835], [11.5470366, 43.0784548], [11.5470288, 43.0783239], [11.5470318, 43.0782098], [11.547042, 43.0780715], [11.5470593, 43.0779318], [11.5471394, 43.0774305], [11.5472596, 43.0767069], [11.5474721, 43.0755058], [11.5476984, 43.074171], [11.5480243, 43.0723896], [11.548082, 43.07207]]}}, {"type": "Feature", "properties": {"electrified": "no", "gauge": "1435", "name": "Asciano-Monte Antico", "railway": "rail", "usage": "tourism"}, "geometry": {"type": "LineString", "coordinates": [[11.5552031, 43.0137064], [11.5554105, 43.0131334]]}}, {"type": "Feature", "properties": {"electrified": "no", "gauge": "1435", "name": "Asciano-Monte Antico", "railway": "rail", "usage": "tourism"}, "geometry": {"type": "LineString", "coordinates": [[11.5554105, 43.0131334], [11.5558003, 43.0121633]]}}, {"type": "Feature", "properties": {"electrified": "no", "gauge": "1435", "name": "Asciano-Monte Antico", "railway": "rail", "usage": "tourism"}, "geometry": {"type": "LineString", "coordinates": [[11.5505335, 43.0579661], [11.5505621, 43.0578133]]}}, {"type": "Feature", "properties": {"electrified": "no", "gauge": "1435", "name": "Asciano-Monte Antico", "railway": "rail", "usage": "tourism"}, "geometry": {"type": "LineString", "coordinates": [[11.5497286, 43.0624141], [11.5498202, 43.062011], [11.5498424, 43.0619044], [11.5498635, 43.0617973], [11.5498813, 43.0616863], [11.5500788, 43.060573], [11.5505335, 43.0579661]]}}, {"type": "Feature", "properties": {"electrified": "no", "gauge": "1435", "name": "Asciano-Monte Antico", "railway": "rail", "usage": "tourism"}, "geometry": {"type": "LineString", "coordinates": [[11.5522099, 43.0220588], [11.5524427, 43.0214179]]}}, {"type": "Feature", "properties": {"electrified": "no", "gauge": "1435", "name": "Asciano-Monte Antico", "railway": "rail", "usage": "tourism"}, "geometry": {"type": "LineString", "coordinates": [[11.5517228, 43.0241027], [11.5519843, 43.0227824], [11.5520355, 43.0226008], [11.5520898, 43.0224192], [11.5522099, 43.0220588]]}}, {"type": "Feature", "properties": {"electrified": "no", "gauge": "1435", "name": "Asciano-Monte Antico", "railway": "rail", "usage": "tourism"}, "geometry": {"type": "LineString", "coordinates": [[11.5076443, 42.9812013], [11.5072964, 42.9811477], [11.5069027, 42.9810847], [11.5067886, 42.9810652], [11.5066763, 42.9810458], [11.5065324, 42.9810176], [11.50638, 42.9809841], [11.5061962, 42.9809357], [11.5058982, 42.9808337], [11.5055155, 42.9807012], [11.5052759, 42.9805902], [11.5051627, 42.9805313], [11.5050558, 42.9804724], [11.5048651, 42.9803608], [11.5045321, 42.9801268], [11.5042045, 42.9798338], [11.5039232, 42.9795211], [11.5032475, 42.9784259], [11.5029895, 42.9780027], [11.5026409, 42.9776674]]}}, {"type": "Feature", "properties": {"electrified": "no", "gauge": "1435", "name": "Asciano-Monte Antico", "railway": "rail", "usage": "tourism"}, "geometry": {"type": "LineString", "coordinates": [[11.5077995, 42.9812259], [11.5076443, 42.9812013]]}}, {"type": "Feature", "properties": {"electrified": "no", "gauge": "1435", "name": "Asciano-Monte Antico", "railway": "rail", "usage": "tourism"}, "geometry": {"type": "LineString", "coordinates": [[11.5140752, 42.9818274], [11.51314, 42.981746], [11.510544, 42.9815605], [11.5098893, 42.9815061], [11.5095643, 42.981479], [11.509397, 42.981461], [11.5092393, 42.981443], [11.509113, 42.9814272], [11.5089915, 42.9814114], [11.5087654, 42.9813781], [11.5083182, 42.981308], [11.5077995, 42.9812259]]}}, {"type": "Feature", "properties": {"electrified": "no", "gauge": "1435", "name": "Asciano-Monte Antico", "railway": "rail", "usage": "tourism"}, "geometry": {"type": "LineString", "coordinates": [[11.5141548, 42.9818343], [11.5140752, 42.9818274]]}}, {"type": "Feature", "properties": {"electrified": "no", "gauge": "1435", "name": "Asciano-Monte Antico", "railway": "rail", "usage": "tourism"}, "geometry": {"type": "LineString", "coordinates": [[11.5497052, 43.0625652], [11.5497286, 43.0624141]]}}, {"type": "Feature", "properties": {"electrified": "no", "gauge": "1435", "name": "Asciano-Monte Antico", "railway": "rail", "usage": "tourism"}, "geometry": {"type": "LineString", "coordinates": [[11.548117, 43.071903], [11.5481746, 43.0715739], [11.5482809, 43.0709029], [11.5483763, 43.070348], [11.5486125, 43.0690585], [11.5488109, 43.0678281], [11.5488375, 43.0676704], [11.5488517, 43.0675838], [11.5488695, 43.0674869], [11.5489437, 43.0670998], [11.5490865, 43.0662847], [11.5492221, 43.0654883], [11.5494871, 43.0639819], [11.5496122, 43.0632262], [11.5497052, 43.0625652]]}}, {"type": "Feature", "properties": {"electrified": "no", "gauge": "1435", "name": "Asciano-Monte Antico", "railway": "rail", "usage": "tourism"}, "geometry": {"type": "LineString", "coordinates": [[11.5512899, 43.0278992], [11.5512805, 43.0277577]]}}, {"type": "Feature", "properties": {"electrified": "no", "gauge": "1435", "name": "Asciano-Monte Antico", "railway": "rail", "usage": "tourism"}, "geometry": {"type": "LineString", "coordinates": [[11.5512805, 43.0277577], [11.5512491, 43.0275254], [11.5512684, 43.0272463], [11.551314, 43.0269806], [11.5513985, 43.0263855], [11.5515798, 43.0252038]]}}, {"type": "Feature", "properties": {"electrified": "no", "gauge": "1435", "name": "Asciano-Monte Antico", "railway": "rail", "usage": "tourism"}, "geometry": {"type": "LineString", "coordinates": [[11.5525652, 43.0343646], [11.5524825, 43.0339439]]}}, {"type": "Feature", "properties": {"electrified": "no", "gauge": "1435", "name": "Asciano-Monte Antico", "railway": "rail", "usage": "tourism"}, "geometry": {"type": "LineString", "coordinates": [[11.5524825, 43.0339439], [11.5519888, 43.0315204], [11.5518248, 43.0306886], [11.551537, 43.0292702], [11.5513603, 43.0283933], [11.5513339, 43.028222], [11.5513158, 43.028107], [11.5512899, 43.0278992]]}}, {"type": "Feature", "properties": {"electrified": "no", "gauge": "1435", "name": "Asciano-Monte Antico", "railway": "rail", "usage": "tourism"}, "geometry": {"type": "LineString", "coordinates": [[11.5552273, 43.0490908], [11.5553459, 43.0489812]]}}, {"type": "Feature", "properties": {"electrified": "no", "gauge": "1435", "name": "Asciano-Monte Antico", "railway": "rail", "usage": "tourism"}, "geometry": {"type": "LineString", "coordinates": [[11.5553459, 43.0489812], [11.5563018, 43.048131], [11.5564302, 43.0480093], [11.5565391, 43.0479034], [11.5566557, 43.0477773], [11.5567954, 43.0476124], [11.5569045, 43.0474794], [11.5569764, 43.0473868], [11.5570436, 43.0472964], [11.5571338, 43.0471646], [11.5572982, 43.0468932]]}}, {"type": "Feature", "properties": {"electrified": "no", "gauge": "1435", "name": "Asciano-Monte Antico", "railway": "rail", "usage": "tourism"}, "geometry": {"type": "LineString", "coordinates": [[11.5591817, 43.0934509], [11.5589601, 43.0932501]]}}, {"type": "Feature", "properties": {"electrified": "no", "gauge": "1435", "name": "Asciano-Monte Antico", "railway": "rail", "usage": "tourism"}, "geometry": {"type": "LineString", "coordinates": [[11.56608, 43.1022831], [11.565579, 43.101241], [11.565019, 43.100331], [11.5639097, 43.0988166], [11.56215, 43.096366], [11.5617022, 43.095833], [11.5612231, 43.095313], [11.5610897, 43.0951817], [11.5609434, 43.0950451], [11.5606269, 43.0947571], [11.5600013, 43.0941892], [11.5591817, 43.0934509]]}}, {"type": "Feature", "properties": {"electrified": "no", "gauge": "1435", "name": "Asciano-Monte Antico", "railway": "rail", "usage": "tourism"}, "geometry": {"type": "LineString", "coordinates": [[11.5735227, 43.1178406], [11.5734221, 43.1176604]]}}, {"type": "Feature", "properties": {"electrified": "no", "gauge": "1435", "name": "Asciano-Monte Antico", "railway": "rail", "usage": "tourism"}, "geometry": {"type": "LineString", "coordinates": [[11.5734221, 43.1176604], [11.5727605, 43.1162413], [11.5703944, 43.1112569], [11.570344, 43.111152], [11.5661365, 43.1024006]]}}, {"type": "Feature", "properties": {"electrified": "no", "gauge": "1435", "name": "Asciano-Monte Antico", "railway": "rail", "usage": "tourism"}, "geometry": {"type": "LineString", "coordinates": [[11.547821, 42.987108], [11.5478659, 42.9873294]]}}, {"type": "Feature", "properties": {"electrified": "no", "gauge": "1435", "name": "Asciano-Monte Antico", "railway": "rail", "usage": "tourism"}, "geometry": {"type": "LineString", "coordinates": [[11.5478659, 42.9873294], [11.548067, 42.9882969], [11.5483721, 42.9897225]]}}, {"type": "Feature", "properties": {"electrified": "no", "gauge": "1435", "name": "Asciano-Monte Antico", "railway": "rail", "usage": "tourism"}, "geometry": {"type": "LineString", "coordinates": [[11.5483721, 42.9897225], [11.5484112, 42.9899128]]}}, {"type": "Feature", "properties": {"electrified": "no", "gauge": "1435", "name": "Asciano-Monte Antico", "railway": "rail", "usage": "tourism"}, "geometry": {"type": "LineString", "coordinates": [[11.5492401, 42.9937487], [11.5493843, 42.9944825], [11.5494519, 42.9948072], [11.5495309, 42.9951169], [11.5495707, 42.9952723], [11.549593, 42.99535], [11.5496152, 42.9954265], [11.5496466, 42.9955276], [11.54968, 42.9956272], [11.549754, 42.9958302], [11.5498115, 42.9959802], [11.5498743, 42.9961303], [11.5499109, 42.99621], [11.5499479, 42.9962892], [11.5500464, 42.9964902], [11.5501192, 42.9966202], [11.5501943, 42.9967502], [11.5502525, 42.9968507], [11.5503137, 42.9969512], [11.5503623, 42.9970275], [11.5504155, 42.9971048], [11.5504747, 42.9971923], [11.5505379, 42.997283], [11.5505964, 42.9973667], [11.550655, 42.9974474], [11.5508515, 42.9976975], [11.5514683, 42.9984419]]}}, {"type": "Feature", "properties": {"electrified": "no", "gauge": "1435", "name": "Asciano-Monte Antico", "railway": "rail", "usage": "tourism"}, "geometry": {"type": "LineString", "coordinates": [[11.5566198, 43.0093269], [11.556514, 43.0098999]]}}, {"type": "Feature", "properties": {"electrified": "no", "gauge": "1435", "name": "Asciano-Monte Antico - Variante Orcia", "railway": "abandoned"}, "geometry": {"type": "LineString", "coordinates": [[11.5560351, 43.0092415], [11.5560014, 43.0091489], [11.5559645, 43.0090704], [11.5559419, 43.0090283], [11.5559063, 43.0089662], [11.5558671, 43.0089041], [11.5558251, 43.0088476], [11.5557795, 43.0087894], [11.5556718, 43.0086573]]}}, {"type": "Feature", "properties": {"electrified": "no", "gauge": "1435", "name": "Asciano-Monte Antico - Variante Orcia", "railway": "abandoned", "usage": "branch"}, "geometry": {"type": "LineString", "coordinates": [[11.5507945, 43.0008425], [11.5504224, 42.9997013], [11.5500609, 42.9984969], [11.5496983, 42.9973566], [11.5494325, 42.9965283], [11.5494001, 42.9964052], [11.5493801, 42.9962776], [11.5493745, 42.9961845], [11.5493758, 42.9959662], [11.5493783, 42.9954703], [11.5493843, 42.9944825]]}}, {"type": "Feature", "properties": {"electrified": "no", "gauge": "1435", "name": "Asciano-Monte Antico", "railway": "rail", "usage": "tourism"}, "geometry": {"type": "LineString", "coordinates": [[11.548082, 43.07207], [11.548117, 43.071903]]}}, {"type": "Feature", "properties": {"electrified": "no", "gauge": "1435", "name": "Asciano-Monte Antico", "railway": "rail", "usage": "tourism"}, "geometry": {"type": "LineString", "coordinates": [[11.5199204, 42.9818856], [11.5194995, 42.981981], [11.5191872, 42.9820389], [11.5188439, 42.9820866], [11.5185605, 42.9821134], [11.5181563, 42.9821326], [11.5175942, 42.9821231], [11.516863, 42.98207], [11.5141548, 42.9818343]]}}, {"type": "Feature", "properties": {"electrified": "no", "gauge": "1435", "name": "Asciano-Monte Antico", "railway": "rail", "usage": "tourism"}, "geometry": {"type": "LineString", "coordinates": [[11.5200731, 42.9818458], [11.5199204, 42.9818856]]}}, {"type": "Feature", "properties": {"electrified": "no", "gauge": "1435", "railway": "abandoned", "usage": "branch"}, "geometry": {"type": "LineString", "coordinates": [[11.5508324, 43.0009816], [11.5508195, 43.0010403], [11.550813, 43.0010861], [11.5508107, 43.0011288], [11.5508142, 43.0011931], [11.5508239, 43.0012589], [11.5508371, 43.0013198], [11.5508564, 43.0013778], [11.5510891, 43.0020163], [11.551144, 43.0021583], [11.551205, 43.0023003], [11.5515259, 43.00301], [11.5515653, 43.0031081], [11.551586, 43.0031617], [11.5516231, 43.0032499], [11.5516452, 43.0032948], [11.5516712, 43.0033437], [11.5517362, 43.0034353]]}}, {"type": "Feature", "properties": {"electrified": "no", "gauge": "1435", "railway": "abandoned", "usage": "branch"}, "geometry": {"type": "LineString", "coordinates": [[11.5515653, 43.0031081], [11.5515636, 43.0031696], [11.55157, 43.0032301], [11.5515814, 43.0032881], [11.5515927, 43.0033315], [11.5516238, 43.0034149], [11.5516615, 43.0035131], [11.5517451, 43.0037232]]}}, {"type": "Feature", "properties": {"electrified": "no", "gauge": "1435", "name": "Asciano-Monte Antico", "railway": "rail", "usage": "tourism"}, "geometry": {"type": "LineString", "coordinates": [[11.5484112, 42.9899128], [11.5488897, 42.9921677], [11.5492092, 42.9936117]]}}, {"type": "Feature", "properties": {"electrified": "no", "gauge": "1435", "name": "Asciano-Monte Antico", "railway": "rail", "usage": "tourism"}, "geometry": {"type": "LineString", "coordinates": [[11.5492092, 42.9936117], [11.5492401, 42.9937487]]}}]}